CORIOLIS                
1 27640U 03001A   24325.42050389  .00000266  00000+0  14653-3 0  9995
2 27640  98.7148 330.1713 0015118  67.0555 293.2215 14.19640841132806
CUTE-1 (CO-55)          
1 27844U 03031E   24324.99860110  .00000761  00000+0  35283-3 0  9998
2 27844  98.6786 329.9107 0010667  56.5059 303.7137 14.23648207109957
CUBESAT XI-IV (CO-57)   
1 27848U 03031J   24325.48879789  .00000584  00000+0  27846-3 0  9998
2 27848  98.6816 330.5442 0010699  70.2781 289.9551 14.23034802109769
MOZHAYETS 4 (RS-22)     
1 27939U 03042A   24325.79181800  .00002651  00000+0  43829-3 0  9991
2 27939  98.3073 124.7895 0010699 287.2164 184.7606 14.71205087131296
IRS-P6 (RESOURCESAT-1)  
1 28051U 03046A   24325.79194840  .00000417  00000+0  15518-3 0  9991
2 28051  98.2735  16.9528 0063437 260.6770 236.1342 14.35750632 98266
SAUDISAT 2              
1 28371U 04025F   24325.35560438  .00000796  00000+0  19167-3 0  9990
2 28371  98.5044 301.1571 0023728 259.2845 100.5680 14.55935162 82223
COSMOS 2407             
1 28380U 04028A   24325.45929365  .00000096  00000+0  82284-4 0  9996
2 28380  82.9581 139.7116 0040326  58.1101 331.0278 13.76252924 20967
COSMOS 2414             
1 28521U 05002A   24325.38651374  .00000119  00000+0  86423-4 0  9995
2 28521  82.9470 117.6278 0040559 163.8440 196.4027 13.87828794  4225
INMARSAT 4-F1           
1 28628U 05009A   24325.58586869  .00000034  00000+0  00000+0 0  9996
2 28628   4.4492  41.5780 0003900 211.6662 195.8373  1.00271062 71926
HAMSAT (VO-52)          
1 28650U 05017B   24325.68035099  .00008659  00000+0  67440-3 0  9991
2 28650  97.9921 316.1456 0022736 161.9375 198.2661 15.01273676 60500
NOAA 18                 
1 28654U 05018A   24325.73577136  .00000383  00000+0  22731-3 0  9995
2 28654  98.8629  41.3222 0013738 343.1902  16.8813 14.13425838  5378
SJ-7                    
1 28737U 05024A   24325.00290144  .00011423  00000+0  71176-3 0  9999
2 28737  97.7677 331.8822 0019129 205.4240 154.6049 15.09578069 61037
CUBESAT XI-V            
1 28895U 05043F   24325.62203731  .00004061  00000+0  69407-3 0  9993
2 28895  98.2236 102.0500 0014585 220.6070 139.4048 14.69385056 17411
CLOUDSAT                
1 29107U 06016A   24325.56750789  .00003206  00000+0  39277-3 0  9996
2 29107  98.4207 319.4165 0006403  36.6235 323.5414 14.83929018989348
CALIPSO                 
1 29108U 06016B   24325.55267870  .00002725  00000+0  49487-3 0  9999
2 29108  98.4347 311.5650 0001178  76.3177 283.8157 14.67054572988860
HINODE (SOLAR-B)        
1 29479U 06041A   24325.49234252  .00001511  00000+0  27652-3 0  9991
2 29479  98.0835 338.6751 0016757 309.7732  50.1996 14.67216972970692
METOP-A                 
1 29499U 06044A   24325.54484910  .00003798  00000+0  46500-3 0  9992
2 29499  98.3444  44.8060 0184784  94.1866  30.1852 14.72395326940920
SHIJIAN-6 02B (SJ-6 02B)
1 29506U 06046B   24325.76510992  .00003096  00000+0  26330-3 0  9997
2 29506  97.7286 349.2137 0003720 107.8653 252.2976 14.98561830984777
DMSP 5D-3 F17 (USA 191) 
1 29522U 06050A   24325.71831174  .00000326  00000+0  19218-3 0  9993
2 29522  98.7430 333.0794 0009053 251.9506 108.0682 14.14667480931321
LAPAN-TUBSAT            
1 29709U 07001A   24325.80995552  .00001432  00000+0  17576-3 0  9992
2 29709  98.0890 303.0027 0010928 250.0259 109.9779 14.84686272966046
HAIYANG-1B              
1 31113U 07010A   24325.40604363  .00000220  00000+0  99612-4 0  9993
2 31113  98.3030 320.3750 0014791 101.7297 258.5547 14.30758450918576
BEIDOU-2 M1             
1 31115U 07011A   24324.26779057 -.00000018  00000+0  00000+0 0  9996
2 31115  51.1668 238.3888 0002507   0.7143 359.3317  1.77349036116198
CAPE-1                  
1 31130U 07012P   24325.33350454  .00003460  00000+0  66417-3 0  9990
2 31130  98.3718 277.2117 0089469  61.3124 299.7034 14.61819964934409
CBERS 2B                
1 32062U 07042A   24324.88226003  .00000691  00000+0  22775-3 0  9991
2 32062  98.3228 271.1077 0029975 264.8843 126.7895 14.40896313902029
COSMO-SKYMED 2          
1 32376U 07059A   24325.65913152  .00001120  00000+0  14718-3 0  9997
2 32376  97.8867 146.5472 0001511  83.9559 276.1827 14.82166142917122
CARTOSAT-2A             
1 32783U 08021A   24325.75784732  .00001668  00000+0  23396-3 0  9999
2 32783  97.8463  20.5203 0011865 169.2083 190.9386 14.78712757894145
CUTE-1.7+APD II (CO-65) 
1 32785U 08021C   24325.48946090  .00008298  00000+0  66415-3 0  9993
2 32785  97.7724 290.0454 0011471 167.1634 192.9883 15.00385290898883
COMPASS-1               
1 32787U 08021E   24325.39194465  .00034504  00000+0  14467-2 0  9994
2 32787  97.6369 302.7632 0010084  41.1613 319.0382 15.23378421901418
AAUSAT-II               
1 32788U 08021F   24325.19776661  .00058740  00000+0  18060-2 0  9998
2 32788  97.6051 307.4985 0005549  42.9829 317.1846 15.33462747902082
SEEDS II (CO-66)        
1 32791U 08021J   24325.34919502  .00017956  00000+0  10991-2 0  9991
2 32791  97.7094 296.4303 0006729 117.8544 242.3367 15.10251080900033
YUBILEINY (RS-30)       
1 32953U 08025A   24325.76678341  .00000017  00000+0  51817-4 0  9998
2 32953  82.5043 352.0969 0020578 122.2094 238.0984 12.43153442748587
FENGYUN 3A              
1 32958U 08026A   24325.26746782  .00000324  00000+0  17491-3 0  9994
2 32958  98.6240 268.0121 0008579 350.2448   9.8560 14.19283264853984
HUANJING 1A (HJ-1A)     
1 33320U 08041A   24325.75484447  .00002967  00000+0  38515-3 0  9991
2 33320  97.6349 325.2003 0018675 215.8780 144.1181 14.81336913873528
HUANJING 1B (HJ-1B)     
1 33321U 08041B   24325.74482706  .00002279  00000+0  29569-3 0  9992
2 33321  97.6271 329.6428 0036078 263.9452  95.7650 14.81258957873544
SHIJIAN-6 03A (SJ-6 03A)
1 33408U 08053A   24325.57928657  .00010719  00000+0  70842-3 0  9990
2 33408  97.8803 329.9695 0014065 166.2171 193.9443 15.07503169876234
SHIJIAN-6 03B (SJ-6 03B)
1 33409U 08053B   24325.72868926  .00002768  00000+0  22413-3 0  9996
2 33409  97.8822 325.6534 0021221 153.2268 207.0056 15.00421479876622
CHUANGXIN 1-02 (CX-1-02)
1 33434U 08056B   24325.77936500  .00000183  00000+0  88269-4 0  9997
2 33434  98.6642 345.2014 0014770  27.5526 332.6436 14.29933219837041
PRISM (HITOMI)          
1 33493U 09002B   24325.17262637  .00070919  00000+0  19730-2 0  9990
2 33493  98.1802  27.7444 0008159  68.1452 292.0657 15.36538857862838
STARS (KUKAI)           
1 33498U 09002G   24325.77598410  .00008362  00000+0  90325-3 0  9995
2 33498  98.1171 243.3555 0007528 257.1191 102.9184 14.88582519853362
KKS-1 (KISEKI)          
1 33499U 09002H   24325.52407898  .00003401  00000+0  45427-3 0  9990
2 33499  98.1265 228.9468 0008413 358.2668   1.8513 14.80208977851237
NOAA 19                 
1 33591U 09005A   24325.71003819  .00000339  00000+0  20525-3 0  9991
2 33591  99.0277  23.0248 0013421 207.4203 152.6261 14.13204426813737
YAOGAN-6                
1 34839U 09021A   24325.38580304  .00047388  00000+0  56047-3 0  9990
2 34839  97.1897 293.0761 0010757 335.1387  24.9351 15.61082064867680
UK-DMC 2                
1 35683U 09041C   24325.70455923  .00001934  00000+0  29984-3 0  9991
2 35683  97.8031 107.2158 0001095  81.0292 279.1041 14.74249743822063
METEOR-M 1              
1 35865U 09049A   24325.82540666  .00000287  00000+0  14716-3 0  9990
2 35865  98.6572 284.2237 0002603 144.0751 216.0603 14.22878637787847
OCEANSAT-2              
1 35931U 09051A   24325.71621860 -.00000116  00000+0 -53476-4 0  9991
2 35931  98.2454 359.2158 0016614  58.6412 301.6378 13.99528070799111
SWISSCUBE               
1 35932U 09051B   24325.25980642  .00002378  00000+0  50307-3 0  9996
2 35932  98.4484 211.6087 0006459 185.7330 174.3796 14.60231675805327
BEESAT-1                
1 35933U 09051C   24325.36884891  .00002063  00000+0  44184-3 0  9995
2 35933  98.4414 212.4101 0004668 196.4408 163.6641 14.59807343805400
ITUPSAT1                
1 35935U 09051E   24325.63617100  .00001940  00000+0  42624-3 0  9994
2 35935  98.4519 212.3745 0006755 208.3389 151.7443 14.58683154805095
DMSP 5D-3 F18 (USA 210) 
1 35951U 09057A   24325.75909484  .00000487  00000+0  27730-3 0  9996
2 35951  98.8354 299.1801 0012237  81.2054 279.0504 14.14389411778495
PROBA-2                 
1 36037U 09059B   24325.55269568  .00000554  00000+0  14127-3 0  9995
2 36037  98.2311 146.4182 0012163 250.9047 109.0833 14.54248031798135
YAOGAN-7                
1 36110U 09069A   24325.48559906  .00001234  00000+0  18242-3 0  9996
2 36110  98.0803 201.6504 0026564  86.4393 273.9854 14.76820883804912
XIWANG-1 (HOPE-1)       
1 36122U 09072B   24324.76142293  .00000005  00000+0  12784-3 0  9990
2 36122 100.3192 279.0859 0008065 105.4774 254.7230 13.16413388717421
RADUGA-1M 2             
1 36358U 10002A   24325.81217586 -.00000182  00000+0  00000+0 0  9992
2 36358   2.1244  86.3153 0004227 172.4223 178.9695  1.00270548 54261
COSMOS 2463             
1 36519U 10017A   24325.48441650  .00000092  00000+0  85693-4 0  9996
2 36519  82.9581 311.2254 0034765 282.5984 234.3185 13.71596662729280
CARTOSAT-2B             
1 36795U 10035A   24325.72629591  .00001599  00000+0  22462-3 0  9998
2 36795  97.8402  20.0130 0011178 250.0417 109.9590 14.78729914775188
AISSAT 1                
1 36797U 10035C   24325.67575667  .00004350  00000+0  42314-3 0  9994
2 36797  98.1602 193.0135 0010247 144.4120 215.7783 14.93075779778638
TISAT 1                 
1 36799U 10035E   24324.65371899  .00016558  00000+0  10635-2 0  9997
2 36799  98.0704 221.2427 0006457  70.6544 289.5381 15.08515699780440
YAOGAN-10               
1 36834U 10038A   24325.78405314  .00001401  00000+0  17668-3 0  9990
2 36834  97.9408 342.0508 0001467  95.1937 352.1587 14.83538894772210
SHIJIAN-6 04B (SJ-6 04B)
1 37180U 10051B   24325.80650021  .00002664  00000+0  23513-3 0  9998
2 37180  97.8513 315.6401 0012909  70.7912 289.4705 14.97212472769838
